{
  "norad_id": 57233,
  "name": "STARLINK-5866",
  "history": [
    {
      "epoch": "2026-05-03T14:28:58.384128Z",
      "apogee_km": 483.97537413120153,
      "perigee_km": 482.12285388042073,
      "latitude_deg": 2.60424251391712e-06,
      "longitude_deg": 1.864668212413137,
      "height_km": 483.006430303639,
      "semi_major_axis_km": 6861.186114005811,
      "eccentricity": 0.000135,
      "inclination_deg": 43.0047,
      "raan_deg": 80.6127,
      "arg_perigee_deg": 258.7831,
      "mean_anomaly_deg": 101.2869,
      "mean_motion_rev_day": 15.27579994
    },
    {
      "epoch": "2026-05-04T14:01:18.756768Z",
      "apogee_km": 484.0069201357737,
      "perigee_km": 482.0803006203796,
      "latitude_deg": 2.8602599816951955e-05,
      "longitude_deg": 2.274694586150806,
      "height_km": 482.9153200236758,
      "semi_major_axis_km": 6861.180610378076,
      "eccentricity": 0.0001404,
      "inclination_deg": 43.005,
      "raan_deg": 75.0743,
      "arg_perigee_deg": 264.3721,
      "mean_anomaly_deg": 95.6971,
      "mean_motion_rev_day": 15.27581832
    },
    {
      "epoch": "2026-05-05T19:50:17.706912Z",
      "apogee_km": 484.2140094102351,
      "perigee_km": 481.9223668773948,
      "latitude_deg": -1.5801983163505733e-05,
      "longitude_deg": -93.20929804506599,
      "height_km": 482.64505131877905,
      "semi_major_axis_km": 6861.205188143815,
      "eccentricity": 0.000167,
      "inclination_deg": 43.0054,
      "raan_deg": 68.0605,
      "arg_perigee_deg": 280.0863,
      "mean_anomaly_deg": 79.98,
      "mean_motion_rev_day": 15.27573624
    },
    {
      "epoch": "2026-05-06T20:56:47.696928Z",
      "apogee_km": 483.7716563871054,
      "perigee_km": 482.2073195478497,
      "latitude_deg": -1.0347055199249318e-05,
      "longitude_deg": -116.77571712212374,
      "height_km": 482.734326970557,
      "semi_major_axis_km": 6861.126487967477,
      "eccentricity": 0.000114,
      "inclination_deg": 43.0049,
      "raan_deg": 62.1502,
      "arg_perigee_deg": 272.3588,
      "mean_anomaly_deg": 87.7133,
      "mean_motion_rev_day": 15.27599907
    },
    {
      "epoch": "2026-05-07T20:29:08.899008Z",
      "apogee_km": 483.8530252150831,
      "perigee_km": 482.29964651584396,
      "latitude_deg": 1.066674131330046e-05,
      "longitude_deg": -116.3701616811231,
      "height_km": 483.0157754878837,
      "semi_major_axis_km": 6861.213335865464,
      "eccentricity": 0.0001132,
      "inclination_deg": 43.0041,
      "raan_deg": 56.6108,
      "arg_perigee_deg": 257.9193,
      "mean_anomaly_deg": 102.1532,
      "mean_motion_rev_day": 15.27570903
    },
    {
      "epoch": "2026-05-08T20:01:29.510112Z",
      "apogee_km": 483.78515487078766,
      "perigee_km": 482.32372109449716,
      "latitude_deg": -1.2345732106933717e-06,
      "longitude_deg": -115.96057161683328,
      "height_km": 482.9407634890485,
      "semi_major_axis_km": 6861.191437982642,
      "eccentricity": 0.0001065,
      "inclination_deg": 43.004,
      "raan_deg": 51.073,
      "arg_perigee_deg": 261.3825,
      "mean_anomaly_deg": 98.6906,
      "mean_motion_rev_day": 15.27578216
    },
    {
      "epoch": "2026-05-09T19:33:50.482368Z",
      "apogee_km": 483.8730027812135,
      "perigee_km": 482.2455270271794,
      "latitude_deg": -1.1240147032094329e-05,
      "longitude_deg": -115.55468766395765,
      "height_km": 483.0159347859098,
      "semi_major_axis_km": 6861.196264904196,
      "eccentricity": 0.0001186,
      "inclination_deg": 43.0056,
      "raan_deg": 45.533,
      "arg_perigee_deg": 257.2512,
      "mean_anomaly_deg": 102.8207,
      "mean_motion_rev_day": 15.27576604
    },
    {
      "epoch": "2026-05-10T17:32:02.410080Z",
      "apogee_km": 484.05816858028356,
      "perigee_km": 482.09860546574964,
      "latitude_deg": 2.1119652708347717e-05,
      "longitude_deg": -91.17492807968803,
      "height_km": 482.9399448164473,
      "semi_major_axis_km": 6861.215387023016,
      "eccentricity": 0.0001428,
      "inclination_deg": 43.0074,
      "raan_deg": 40.3647,
      "arg_perigee_deg": 265.0803,
      "mean_anomaly_deg": 94.9886,
      "mean_motion_rev_day": 15.27570218
    },
    {
      "epoch": "2026-05-11T10:47:45.450240Z",
      "apogee_km": 483.9082276561485,
      "perigee_km": 482.24726479038236,
      "latitude_deg": -1.317585172189515e-06,
      "longitude_deg": 5.123390348090216,
      "height_km": 482.99598719369595,
      "semi_major_axis_km": 6861.214746223265,
      "eccentricity": 0.00012104,
      "inclination_deg": 43.0052,
      "raan_deg": 36.3013,
      "arg_perigee_deg": 260.2142,
      "mean_anomaly_deg": 99.8573,
      "mean_motion_rev_day": 15.27570432
    },
    {
      "epoch": "2026-05-12T16:36:43.579584Z",
      "apogee_km": 483.87678839255113,
      "perigee_km": 482.23559098157784,
      "latitude_deg": -2.2866055393278354e-05,
      "longitude_deg": -90.35894358430912,
      "height_km": 482.961441755451,
      "semi_major_axis_km": 6861.193189687064,
      "eccentricity": 0.0001196,
      "inclination_deg": 43.0052,
      "raan_deg": 29.2857,
      "arg_perigee_deg": 261.0141,
      "mean_anomaly_deg": 99.0575,
      "mean_motion_rev_day": 15.27577631
    },
    {
      "epoch": "2026-05-13T09:52:27.012000Z",
      "apogee_km": 483.82198036930095,
      "perigee_km": 482.28781786065883,
      "latitude_deg": -3.3848507118931556e-05,
      "longitude_deg": 5.9399489341037555,
      "height_km": 482.9224923681151,
      "semi_major_axis_km": 6861.19189911498,
      "eccentricity": 0.0001118,
      "inclination_deg": 43.0063,
      "raan_deg": 25.2245,
      "arg_perigee_deg": 263.2287,
      "mean_anomaly_deg": 96.8437,
      "mean_motion_rev_day": 15.27578062
    },
    {
      "epoch": "2026-05-13T22:25:42.045888Z",
      "apogee_km": 483.8149934000958,
      "perigee_km": 482.29455330312067,
      "latitude_deg": 1.0915350462090866e-05,
      "longitude_deg": 174.1576741138863,
      "height_km": 482.93152492215194,
      "semi_major_axis_km": 6861.1917733516075,
      "eccentricity": 0.0001108,
      "inclination_deg": 43.0062,
      "raan_deg": 22.2704,
      "arg_perigee_deg": 262.4695,
      "mean_anomaly_deg": 97.6031,
      "mean_motion_rev_day": 15.27578104
    },
    {
      "epoch": "2026-05-14T23:32:12.232896Z",
      "apogee_km": 483.8930434390568,
      "perigee_km": 482.2331819077981,
      "latitude_deg": 3.263034209952356e-06,
      "longitude_deg": 150.59172225301117,
      "height_km": 482.97599644288704,
      "semi_major_axis_km": 6861.200112673427,
      "eccentricity": 0.00012096,
      "inclination_deg": 43.0045,
      "raan_deg": 16.3614,
      "arg_perigee_deg": 260.5773,
      "mean_anomaly_deg": 99.4942,
      "mean_motion_rev_day": 15.27575319
    },
    {
      "epoch": "2026-05-16T16:20:16.107072Z",
      "apogee_km": 483.8810329017324,
      "perigee_km": 482.23571825066847,
      "latitude_deg": 1.2860639006205346e-06,
      "longitude_deg": -112.70146511060663,
      "height_km": 482.9638798145504,
      "semi_major_axis_km": 6861.1953755762,
      "eccentricity": 0.0001199,
      "inclination_deg": 43.0044,
      "raan_deg": 6.76,
      "arg_perigee_deg": 261.0127,
      "mean_anomaly_deg": 99.0589,
      "mean_motion_rev_day": 15.27576901
    }
  ]
}